{"type": "FeatureCollection", "features": [{"type": "Feature", "properties": {"entityId": "1369094286737286086", "name": "Ba Sing Se", "tier": 2, "has_bank": 0, "has_market": 0, "has_waystone": 0}, "geometry": {"type": "Point", "coordinates": [28268, 24054]}}, {"type": "Feature", "properties": {"entityId": "1369094286737279821", "name": "CroaksAntsAndPolli", "tier": 2, "has_bank": 0, "has_market": 0, "has_waystone": 0}, "geometry": {"type": "Point", "coordinates": [23656, 25112]}}, {"type": "Feature", "properties": {"entityId": "1369094286737271887", "name": "Pandoria", "tier": 2, "has_bank": 0, "has_market": 0, "has_waystone": 0}, "geometry": {"type": "Point", "coordinates": [24103, 28750]}}, {"type": "Feature", "properties": {"entityId": "1369094286737208179", "name": "Fluffy Unicorn", "tier": 2, "has_bank": 0, "has_market": 0, "has_waystone": 0}, "geometry": {"type": "Point", "coordinates": [23572, 28321]}}, {"type": "Feature", "properties": {"entityId": "1369094286737189255", "name": "LunarBound", "tier": 2, "has_bank": 0, "has_market": 0, "has_waystone": 0}, "geometry": {"type": "Point", "coordinates": [27361, 23715]}}, {"type": "Feature", "properties": {"entityId": "1297036692700277131", "name": "Zazaland", "tier": 1, "has_bank": 0, "has_market": 0, "has_waystone": 0}, "geometry": {"type": "Point", "coordinates": [22450, 25041]}}, {"type": "Feature", "properties": {"entityId": "1297036692700169016", "name": "Grassland Garden", "tier": 2, "has_bank": 0, "has_market": 0, "has_waystone": 0}, "geometry": {"type": "Point", "coordinates": [22296, 23550]}}, {"type": "Feature", "properties": {"entityId": "1297036692700089381", "name": "NOC Farmville", "tier": 2, "has_bank": 0, "has_market": 0, "has_waystone": 0}, "geometry": {"type": "Point", "coordinates": [19655, 27141]}}, {"type": "Feature", "properties": {"entityId": "1297036692700081631", "name": "Bumbeaux Bay", "tier": 2, "has_bank": 0, "has_market": 0, "has_waystone": 0}, "geometry": {"type": "Point", "coordinates": [21269, 25521]}}, {"type": "Feature", "properties": {"entityId": "1297036692700078696", "name": "Istanbullfrog", "tier": 2, "has_bank": 0, "has_market": 0, "has_waystone": 0}, "geometry": {"type": "Point", "coordinates": [22859, 26533]}}, {"type": "Feature", "properties": {"entityId": "1297036692700056569", "name": "Bitbucht", "tier": 2, "has_bank": 0, "has_market": 0, "has_waystone": 0}, "geometry": {"type": "Point", "coordinates": [22318, 25320]}}, {"type": "Feature", "properties": {"entityId": "1224979098660291952", "name": "Lethe", "tier": 2, "has_bank": 0, "has_market": 0, "has_waystone": 0}, "geometry": {"type": "Point", "coordinates": [11478, 27084]}}, {"type": "Feature", "properties": {"entityId": "1008806316547834881", "name": "Claimed area (N: 6285, E: 9614)", "tier": 1, "has_bank": 0, "has_market": 0, "has_waystone": 0}, "geometry": {"type": "Point", "coordinates": [28844, 18855]}}, {"type": "Feature", "properties": {"entityId": "1008806316547823881", "name": "Portus Aeltherii", "tier": 2, "has_bank": 0, "has_market": 0, "has_waystone": 0}, "geometry": {"type": "Point", "coordinates": [24634, 15597]}}, {"type": "Feature", "properties": {"entityId": "1008806316547777661", "name": "Aldea de la LUZ", "tier": 2, "has_bank": 0, "has_market": 0, "has_waystone": 0}, "geometry": {"type": "Point", "coordinates": [26193, 17501]}}, {"type": "Feature", "properties": {"entityId": "1008806316547773715", "name": "Roosterville 6175 E 8724", "tier": 1, "has_bank": 0, "has_market": 0, "has_waystone": 0}, "geometry": {"type": "Point", "coordinates": [26173, 18526]}}, {"type": "Feature", "properties": {"entityId": "1008806316547751935", "name": "Blue Sky", "tier": 2, "has_bank": 0, "has_market": 0, "has_waystone": 0}, "geometry": {"type": "Point", "coordinates": [29209, 18417]}}, {"type": "Feature", "properties": {"entityId": "1008806316547739820", "name": "Get Off My Lawn", "tier": 2, "has_bank": 0, "has_market": 0, "has_waystone": 0}, "geometry": {"type": "Point", "coordinates": [26004, 17453]}}, {"type": "Feature", "properties": {"entityId": "1008806316547725401", "name": "Claimed area (N: 7438, E: 8261)", "tier": 1, "has_bank": 0, "has_market": 0, "has_waystone": 0}, "geometry": {"type": "Point", "coordinates": [24781, 22313]}}, {"type": "Feature", "properties": {"entityId": "1008806316547716360", "name": "Windseekers Rise", "tier": 1, "has_bank": 0, "has_market": 0, "has_waystone": 0}, "geometry": {"type": "Point", "coordinates": [27998, 18067]}}, {"type": "Feature", "properties": {"entityId": "1008806316547629671", "name": "Linger", "tier": 1, "has_bank": 0, "has_market": 0, "has_waystone": 0}, "geometry": {"type": "Point", "coordinates": [26762, 17321]}}, {"type": "Feature", "properties": {"entityId": "1008806316547624839", "name": "Notsolis", "tier": 1, "has_bank": 0, "has_market": 0, "has_waystone": 0}, "geometry": {"type": "Point", "coordinates": [24339, 21282]}}, {"type": "Feature", "properties": {"entityId": "1008806316547622218", "name": "Tincture", "tier": 2, "has_bank": 0, "has_market": 0, "has_waystone": 0}, "geometry": {"type": "Point", "coordinates": [26379, 17427]}}, {"type": "Feature", "properties": {"entityId": "1008806316547592462", "name": "New Aquila", "tier": 2, "has_bank": 0, "has_market": 0, "has_waystone": 0}, "geometry": {"type": "Point", "coordinates": [28113, 19384]}}, {"type": "Feature", "properties": {"entityId": "1008806316547590050", "name": "Moonlight Harbor", "tier": 2, "has_bank": 0, "has_market": 0, "has_waystone": 0}, "geometry": {"type": "Point", "coordinates": [25749, 17578]}}, {"type": "Feature", "properties": {"entityId": "1008806316547583067", "name": "UMB Concordia", "tier": 3, "has_bank": 0, "has_market": 0, "has_waystone": 0}, "geometry": {"type": "Point", "coordinates": [24061, 19247]}}, {"type": "Feature", "properties": {"entityId": "936748722502479072", "name": "The Sunflower City", "tier": 2, "has_bank": 0, "has_market": 0, "has_waystone": 0}, "geometry": {"type": "Point", "coordinates": [16863, 16818]}}, {"type": "Feature", "properties": {"entityId": "936748722502474502", "name": "Oceansky", "tier": 2, "has_bank": 0, "has_market": 0, "has_waystone": 0}, "geometry": {"type": "Point", "coordinates": [21660, 21098]}}, {"type": "Feature", "properties": {"entityId": "936748722502444079", "name": "We are Jaruud", "tier": 1, "has_bank": 0, "has_market": 0, "has_waystone": 0}, "geometry": {"type": "Point", "coordinates": [17707, 18225]}}, {"type": "Feature", "properties": {"entityId": "864691128473092749", "name": "C L I C K", "tier": 2, "has_bank": 0, "has_market": 0, "has_waystone": 0}, "geometry": {"type": "Point", "coordinates": [14211, 18189]}}, {"type": "Feature", "properties": {"entityId": "864691128473083770", "name": "Urgopolis", "tier": 2, "has_bank": 0, "has_market": 0, "has_waystone": 0}, "geometry": {"type": "Point", "coordinates": [9025, 18147]}}, {"type": "Feature", "properties": {"entityId": "864691128473045600", "name": "Bad Wolf Bay", "tier": 2, "has_bank": 0, "has_market": 0, "has_waystone": 0}, "geometry": {"type": "Point", "coordinates": [9742, 18557]}}, {"type": "Feature", "properties": {"entityId": "864691128473041055", "name": "Fraggle Rock", "tier": 2, "has_bank": 0, "has_market": 0, "has_waystone": 0}, "geometry": {"type": "Point", "coordinates": [10591, 16039]}}, {"type": "Feature", "properties": {"entityId": "864691128473028345", "name": "Ithaca", "tier": 1, "has_bank": 0, "has_market": 0, "has_waystone": 0}, "geometry": {"type": "Point", "coordinates": [8764, 18918]}}, {"type": "Feature", "properties": {"entityId": "864691128473023507", "name": "Jita", "tier": 2, "has_bank": 0, "has_market": 0, "has_waystone": 0}, "geometry": {"type": "Point", "coordinates": [12685, 20317]}}, {"type": "Feature", "properties": {"entityId": "864691128473012693", "name": "The Wandering Inn", "tier": 2, "has_bank": 0, "has_market": 0, "has_waystone": 0}, "geometry": {"type": "Point", "coordinates": [9507, 17860]}}, {"type": "Feature", "properties": {"entityId": "864691128473008014", "name": "Maple Lake", "tier": 2, "has_bank": 0, "has_market": 0, "has_waystone": 0}, "geometry": {"type": "Point", "coordinates": [8555, 16295]}}, {"type": "Feature", "properties": {"entityId": "864691128473001356", "name": "Towerborne 2", "tier": 1, "has_bank": 0, "has_market": 0, "has_waystone": 0}, "geometry": {"type": "Point", "coordinates": [9985, 21435]}}, {"type": "Feature", "properties": {"entityId": "864691128472997939", "name": "Courthal", "tier": 1, "has_bank": 0, "has_market": 0, "has_waystone": 0}, "geometry": {"type": "Point", "coordinates": [9013, 19055]}}, {"type": "Feature", "properties": {"entityId": "864691128472989956", "name": "Stormreach", "tier": 2, "has_bank": 0, "has_market": 0, "has_waystone": 0}, "geometry": {"type": "Point", "coordinates": [13227, 16016]}}, {"type": "Feature", "properties": {"entityId": "864691128472978405", "name": "Clearwater", "tier": 2, "has_bank": 0, "has_market": 0, "has_waystone": 0}, "geometry": {"type": "Point", "coordinates": [11488, 19393]}}, {"type": "Feature", "properties": {"entityId": "864691128472961458", "name": "Lost my desired place", "tier": 1, "has_bank": 0, "has_market": 0, "has_waystone": 0}, "geometry": {"type": "Point", "coordinates": [9252, 18876]}}, {"type": "Feature", "properties": {"entityId": "864691128472957339", "name": "Claimed area (N: 5351, E: 2975)", "tier": 1, "has_bank": 0, "has_market": 0, "has_waystone": 0}, "geometry": {"type": "Point", "coordinates": [8926, 16053]}}, {"type": "Feature", "properties": {"entityId": "864691128472944648", "name": "Goydhelm", "tier": 2, "has_bank": 0, "has_market": 0, "has_waystone": 0}, "geometry": {"type": "Point", "coordinates": [9535, 16396]}}, {"type": "Feature", "properties": {"entityId": "864691128472940633", "name": "Claimed area (N: 7334, E: 4865)", "tier": 1, "has_bank": 0, "has_market": 0, "has_waystone": 0}, "geometry": {"type": "Point", "coordinates": [14595, 22001]}}, {"type": "Feature", "properties": {"entityId": "864691128472938075", "name": "Claimed area (N: 5609, E: 4127)", "tier": 1, "has_bank": 0, "has_market": 0, "has_waystone": 0}, "geometry": {"type": "Point", "coordinates": [12382, 16827]}}, {"type": "Feature", "properties": {"entityId": "864691128472877644", "name": "Solvenar", "tier": 2, "has_bank": 0, "has_market": 0, "has_waystone": 0}, "geometry": {"type": "Point", "coordinates": [13820, 20292]}}, {"type": "Feature", "properties": {"entityId": "864691128472852983", "name": "Towerborne", "tier": 1, "has_bank": 0, "has_market": 0, "has_waystone": 0}, "geometry": {"type": "Point", "coordinates": [9406, 21914]}}, {"type": "Feature", "properties": {"entityId": "864691128472841222", "name": "CSB Aurora", "tier": 1, "has_bank": 0, "has_market": 0, "has_waystone": 0}, "geometry": {"type": "Point", "coordinates": [11407, 17457]}}, {"type": "Feature", "properties": {"entityId": "864691128472838585", "name": "Estalucia", "tier": 2, "has_bank": 0, "has_market": 0, "has_waystone": 0}, "geometry": {"type": "Point", "coordinates": [10039, 17134]}}, {"type": "Feature", "properties": {"entityId": "864691128472830127", "name": "The Randy Ribbit Ranch", "tier": 2, "has_bank": 0, "has_market": 0, "has_waystone": 0}, "geometry": {"type": "Point", "coordinates": [10221, 17442]}}, {"type": "Feature", "properties": {"entityId": "864691128472822393", "name": "MATCHA LATTE", "tier": 2, "has_bank": 0, "has_market": 0, "has_waystone": 0}, "geometry": {"type": "Point", "coordinates": [10346, 17199]}}, {"type": "Feature", "properties": {"entityId": "864691128472809590", "name": "WisperVale", "tier": 2, "has_bank": 0, "has_market": 0, "has_waystone": 0}, "geometry": {"type": "Point", "coordinates": [9177, 17812]}}, {"type": "Feature", "properties": {"entityId": "864691128472807988", "name": "Nevergrim", "tier": 2, "has_bank": 0, "has_market": 0, "has_waystone": 0}, "geometry": {"type": "Point", "coordinates": [11579, 16397]}}, {"type": "Feature", "properties": {"entityId": "864691128472806646", "name": "Jaruudsalem", "tier": 2, "has_bank": 0, "has_market": 0, "has_waystone": 0}, "geometry": {"type": "Point", "coordinates": [12358, 19761]}}, {"type": "Feature", "properties": {"entityId": "864691128472803859", "name": "Mythica", "tier": 2, "has_bank": 0, "has_market": 0, "has_waystone": 0}, "geometry": {"type": "Point", "coordinates": [9358, 19053]}}, {"type": "Feature", "properties": {"entityId": "864691128472792407", "name": "Freeport", "tier": 2, "has_bank": 0, "has_market": 0, "has_waystone": 0}, "geometry": {"type": "Point", "coordinates": [11403, 16110]}}, {"type": "Feature", "properties": {"entityId": "648518346354418765", "name": "Post Office", "tier": 1, "has_bank": 0, "has_market": 0, "has_waystone": 0}, "geometry": {"type": "Point", "coordinates": [25870, 14069]}}, {"type": "Feature", "properties": {"entityId": "648518346354349732", "name": "Quebecois is Better", "tier": 1, "has_bank": 0, "has_market": 0, "has_waystone": 0}, "geometry": {"type": "Point", "coordinates": [30003, 13282]}}, {"type": "Feature", "properties": {"entityId": "648518346354306726", "name": "Triste pain", "tier": 2, "has_bank": 0, "has_market": 0, "has_waystone": 0}, "geometry": {"type": "Point", "coordinates": [29294, 13821]}}, {"type": "Feature", "properties": {"entityId": "648518346354290172", "name": "Yozhik Holm", "tier": 2, "has_bank": 0, "has_market": 0, "has_waystone": 0}, "geometry": {"type": "Point", "coordinates": [28458, 12924]}}, {"type": "Feature", "properties": {"entityId": "648518346354287392", "name": "Myralune", "tier": 2, "has_bank": 0, "has_market": 0, "has_waystone": 0}, "geometry": {"type": "Point", "coordinates": [27234, 11775]}}, {"type": "Feature", "properties": {"entityId": "648518346354242466", "name": "We droped this claim for 50min", "tier": 1, "has_bank": 0, "has_market": 0, "has_waystone": 0}, "geometry": {"type": "Point", "coordinates": [23996, 15087]}}, {"type": "Feature", "properties": {"entityId": "648518346354215822", "name": "Coq au Ricard", "tier": 2, "has_bank": 0, "has_market": 0, "has_waystone": 0}, "geometry": {"type": "Point", "coordinates": [25660, 13592]}}, {"type": "Feature", "properties": {"entityId": "648518346354211707", "name": "Burmecia", "tier": 2, "has_bank": 0, "has_market": 0, "has_waystone": 0}, "geometry": {"type": "Point", "coordinates": [26386, 12063]}}, {"type": "Feature", "properties": {"entityId": "648518346354192694", "name": "Solspire", "tier": 2, "has_bank": 0, "has_market": 0, "has_waystone": 0}, "geometry": {"type": "Point", "coordinates": [25605, 11676]}}, {"type": "Feature", "properties": {"entityId": "648518346354109256", "name": "Xeltrassian Nexus", "tier": 2, "has_bank": 0, "has_market": 0, "has_waystone": 1}, "geometry": {"type": "Point", "coordinates": [26953, 14049]}}, {"type": "Feature", "properties": {"entityId": "648518346354108076", "name": "Lutece", "tier": 2, "has_bank": 0, "has_market": 0, "has_waystone": 0}, "geometry": {"type": "Point", "coordinates": [27070, 14155]}}, {"type": "Feature", "properties": {"entityId": "576460752317776343", "name": "Wildguard", "tier": 1, "has_bank": 0, "has_market": 0, "has_waystone": 0}, "geometry": {"type": "Point", "coordinates": [18037, 11069]}}, {"type": "Feature", "properties": {"entityId": "576460752317771604", "name": "Darkthorn", "tier": 1, "has_bank": 0, "has_market": 0, "has_waystone": 0}, "geometry": {"type": "Point", "coordinates": [20942, 10090]}}, {"type": "Feature", "properties": {"entityId": "576460752317767504", "name": "The Black Lodge", "tier": 2, "has_bank": 0, "has_market": 0, "has_waystone": 0}, "geometry": {"type": "Point", "coordinates": [19443, 9387]}}, {"type": "Feature", "properties": {"entityId": "576460752317722595", "name": "Floathaven", "tier": 2, "has_bank": 0, "has_market": 0, "has_waystone": 0}, "geometry": {"type": "Point", "coordinates": [16898, 10450]}}, {"type": "Feature", "properties": {"entityId": "576460752317677220", "name": "Emberleaf", "tier": 1, "has_bank": 0, "has_market": 0, "has_waystone": 0}, "geometry": {"type": "Point", "coordinates": [20403, 10128]}}, {"type": "Feature", "properties": {"entityId": "576460752317674470", "name": "Birds of a Feather", "tier": 2, "has_bank": 0, "has_market": 0, "has_waystone": 0}, "geometry": {"type": "Point", "coordinates": [20219, 10242]}}, {"type": "Feature", "properties": {"entityId": "576460752317672631", "name": "Cheese Town", "tier": 2, "has_bank": 0, "has_market": 0, "has_waystone": 0}, "geometry": {"type": "Point", "coordinates": [17099, 9490]}}, {"type": "Feature", "properties": {"entityId": "576460752317654569", "name": "Port Tridant", "tier": 2, "has_bank": 0, "has_market": 0, "has_waystone": 0}, "geometry": {"type": "Point", "coordinates": [18463, 10113]}}, {"type": "Feature", "properties": {"entityId": "576460752317648180", "name": "Rum Ham Inc", "tier": 2, "has_bank": 0, "has_market": 0, "has_waystone": 0}, "geometry": {"type": "Point", "coordinates": [17130, 10874]}}, {"type": "Feature", "properties": {"entityId": "576460752317575436", "name": "Ashenreach", "tier": 1, "has_bank": 0, "has_market": 0, "has_waystone": 0}, "geometry": {"type": "Point", "coordinates": [20545, 14198]}}, {"type": "Feature", "properties": {"entityId": "576460752317570321", "name": "La Reunion", "tier": 2, "has_bank": 0, "has_market": 0, "has_waystone": 0}, "geometry": {"type": "Point", "coordinates": [17268, 10256]}}, {"type": "Feature", "properties": {"entityId": "576460752317569190", "name": "The Kollective", "tier": 2, "has_bank": 0, "has_market": 0, "has_waystone": 0}, "geometry": {"type": "Point", "coordinates": [17682, 10644]}}, {"type": "Feature", "properties": {"entityId": "576460752317556013", "name": "Drasilia", "tier": 2, "has_bank": 0, "has_market": 0, "has_waystone": 0}, "geometry": {"type": "Point", "coordinates": [18102, 13916]}}, {"type": "Feature", "properties": {"entityId": "576460752317553013", "name": "BitCraft", "tier": 2, "has_bank": 0, "has_market": 0, "has_waystone": 0}, "geometry": {"type": "Point", "coordinates": [17377, 13095]}}, {"type": "Feature", "properties": {"entityId": "576460752317547663", "name": "Claimed area (N: 3550, E: 5983)", "tier": 1, "has_bank": 0, "has_market": 0, "has_waystone": 0}, "geometry": {"type": "Point", "coordinates": [17949, 10651]}}, {"type": "Feature", "properties": {"entityId": "576460752317541270", "name": "Rivermeade", "tier": 2, "has_bank": 0, "has_market": 0, "has_waystone": 0}, "geometry": {"type": "Point", "coordinates": [18577, 10611]}}, {"type": "Feature", "properties": {"entityId": "576460752317504747", "name": "Burnout Farms", "tier": 1, "has_bank": 0, "has_market": 0, "has_waystone": 0}, "geometry": {"type": "Point", "coordinates": [21055, 10725]}}, {"type": "Feature", "properties": {"entityId": "576460752317500524", "name": "Hempshire", "tier": 2, "has_bank": 0, "has_market": 0, "has_waystone": 0}, "geometry": {"type": "Point", "coordinates": [18651, 9823]}}, {"type": "Feature", "properties": {"entityId": "576460752317497461", "name": "GunmaMaebashi", "tier": 1, "has_bank": 0, "has_market": 0, "has_waystone": 0}, "geometry": {"type": "Point", "coordinates": [20126, 14789]}}, {"type": "Feature", "properties": {"entityId": "576460752317424636", "name": "Tortuga Prime", "tier": 3, "has_bank": 0, "has_market": 0, "has_waystone": 1}, "geometry": {"type": "Point", "coordinates": [19294, 11583]}}, {"type": "Feature", "properties": {"entityId": "576460752317422194", "name": "Burnout Bay", "tier": 3, "has_bank": 0, "has_market": 0, "has_waystone": 0}, "geometry": {"type": "Point", "coordinates": [20673, 10632]}}, {"type": "Feature", "properties": {"entityId": "504403158281425799", "name": "Thorne", "tier": 2, "has_bank": 0, "has_market": 0, "has_waystone": 0}, "geometry": {"type": "Point", "coordinates": [13275, 14733]}}, {"type": "Feature", "properties": {"entityId": "504403158281424561", "name": "Legitimate Trading Post", "tier": 2, "has_bank": 0, "has_market": 0, "has_waystone": 0}, "geometry": {"type": "Point", "coordinates": [11440, 11445]}}, {"type": "Feature", "properties": {"entityId": "504403158281362257", "name": "We are all Jaruud", "tier": 2, "has_bank": 0, "has_market": 0, "has_waystone": 0}, "geometry": {"type": "Point", "coordinates": [14342, 12527]}}, {"type": "Feature", "properties": {"entityId": "504403158281332451", "name": "Urgport", "tier": 1, "has_bank": 0, "has_market": 0, "has_waystone": 0}, "geometry": {"type": "Point", "coordinates": [13203, 14110]}}, {"type": "Feature", "properties": {"entityId": "504403158281321768", "name": "Hex and Highwater Port", "tier": 2, "has_bank": 1, "has_market": 0, "has_waystone": 0}, "geometry": {"type": "Point", "coordinates": [11170, 13869]}}]}