{
    "type": "FeatureCollection",
    "features": [
        {
            "type": "Feature",
            "id": 504403158281132600,
            "properties": {
                "popupText": "{0} (N: {1}, E: {2})|~Araknir Dungeon|~3321|~3085",
                "iconName": "dungeon",
                "iconSize": [
                    35,
                    35
                ],
                "type": 1084069097
            },
            "geometry": {
                "type": "Point",
                "coordinates": [
                    9256,
                    9964
                ]
            }
        },
        {
            "type": "Feature",
            "id": 504403158281132783,
            "properties": {
                "popupText": "{0} (N: {1}, E: {2})|~Araknir Dungeon|~3357|~4861",
                "iconName": "dungeon",
                "iconSize": [
                    35,
                    35
                ],
                "type": 1084069097
            },
            "geometry": {
                "type": "Point",
                "coordinates": [
                    14584,
                    10070
                ]
            }
        },
        {
            "type": "Feature",
            "id": 504403158281057782,
            "properties": {
                "popupText": "{0} (N: {1}, E: {2})|~Giant Skitch Dungeon|~3401|~3834",
                "iconName": "dungeon",
                "iconSize": [
                    35,
                    35
                ],
                "type": 1785852446
            },
            "geometry": {
                "type": "Point",
                "coordinates": [
                    11502,
                    10203
                ]
            }
        },
        {
            "type": "Feature",
            "id": 504403158281057926,
            "properties": {
                "popupText": "{0} (N: {1}, E: {2})|~Giant Skitch Dungeon|~3699|~3512",
                "iconName": "dungeon",
                "iconSize": [
                    35,
                    35
                ],
                "type": 1785852446
            },
            "geometry": {
                "type": "Point",
                "coordinates": [
                    10537,
                    11097
                ]
            }
        },
        {
            "type": "Feature",
            "id": 504403158281058070,
            "properties": {
                "popupText": "{0} (N: {1}, E: {2})|~Giant Skitch Dungeon|~4060|~3774",
                "iconName": "dungeon",
                "iconSize": [
                    35,
                    35
                ],
                "type": 1785852446
            },
            "geometry": {
                "type": "Point",
                "coordinates": [
                    11322,
                    12180
                ]
            }
        },
        {
            "type": "Feature",
            "id": 504403158281058214,
            "properties": {
                "popupText": "{0} (N: {1}, E: {2})|~Giant Skitch Dungeon|~4120|~3445",
                "iconName": "dungeon",
                "iconSize": [
                    35,
                    35
                ],
                "type": 1785852446
            },
            "geometry": {
                "type": "Point",
                "coordinates": [
                    10335,
                    12361
                ]
            }
        },
        {
            "type": "Feature",
            "id": 504403158281147423,
            "properties": {
                "popupText": "{0} (N: {1}, E: {2})|~Sentinel Dungeon|~2879|~3828",
                "iconName": "dungeon",
                "iconSize": [
                    35,
                    35
                ],
                "type": 208697589
            },
            "geometry": {
                "type": "Point",
                "coordinates": [
                    11485,
                    8637
                ]
            }
        },
        {
            "type": "Feature",
            "id": 504403158281157246,
            "properties": {
                "popupText": "{0} (N: {1}, E: {2})|~Sentinel Dungeon|~4013|~4353",
                "iconName": "dungeon",
                "iconSize": [
                    35,
                    35
                ],
                "type": 208697589
            },
            "geometry": {
                "type": "Point",
                "coordinates": [
                    13061,
                    12040
                ]
            }
        },
        {
            "type": "Feature",
            "id": 504403158281135618,
            "properties": {
                "popupText": "{0} (N: {1}, E: {2})|~Sentinel Dungeon|~4452|~2902",
                "iconName": "dungeon",
                "iconSize": [
                    35,
                    35
                ],
                "type": 208697589
            },
            "geometry": {
                "type": "Point",
                "coordinates": [
                    8706,
                    13355
                ]
            }
        },
        {
            "type": "Feature",
            "id": 576460752317255330,
            "properties": {
                "popupText": "{0} (N: {1}, E: {2})|~Araknir Dungeon|~3058|~5613",
                "iconName": "dungeon",
                "iconSize": [
                    35,
                    35
                ],
                "type": 1084069097
            },
            "geometry": {
                "type": "Point",
                "coordinates": [
                    16839,
                    9173
                ]
            }
        },
        {
            "type": "Feature",
            "id": 576460752317255147,
            "properties": {
                "popupText": "{0} (N: {1}, E: {2})|~Araknir Dungeon|~4279|~5340",
                "iconName": "dungeon",
                "iconSize": [
                    35,
                    35
                ],
                "type": 1084069097
            },
            "geometry": {
                "type": "Point",
                "coordinates": [
                    16023,
                    12838
                ]
            }
        },
        {
            "type": "Feature",
            "id": 576460752317179850,
            "properties": {
                "popupText": "{0} (N: {1}, E: {2})|~Giant Skitch Dungeon|~3633|~6573",
                "iconName": "dungeon",
                "iconSize": [
                    35,
                    35
                ],
                "type": 1785852446
            },
            "geometry": {
                "type": "Point",
                "coordinates": [
                    19720,
                    10900
                ]
            }
        },
        {
            "type": "Feature",
            "id": 576460752317179674,
            "properties": {
                "popupText": "{0} (N: {1}, E: {2})|~Giant Skitch Dungeon|~3690|~6144",
                "iconName": "dungeon",
                "iconSize": [
                    35,
                    35
                ],
                "type": 1785852446
            },
            "geometry": {
                "type": "Point",
                "coordinates": [
                    18433,
                    11071
                ]
            }
        },
        {
            "type": "Feature",
            "id": 576460752317179996,
            "properties": {
                "popupText": "{0} (N: {1}, E: {2})|~Giant Skitch Dungeon|~4107|~6644",
                "iconName": "dungeon",
                "iconSize": [
                    35,
                    35
                ],
                "type": 1785852446
            },
            "geometry": {
                "type": "Point",
                "coordinates": [
                    19934,
                    12321
                ]
            }
        },
        {
            "type": "Feature",
            "id": 576460752317180140,
            "properties": {
                "popupText": "{0} (N: {1}, E: {2})|~Giant Skitch Dungeon|~4221|~6318",
                "iconName": "dungeon",
                "iconSize": [
                    35,
                    35
                ],
                "type": 1785852446
            },
            "geometry": {
                "type": "Point",
                "coordinates": [
                    18955,
                    12664
                ]
            }
        },
        {
            "type": "Feature",
            "id": 576460752317258450,
            "properties": {
                "popupText": "{0} (N: {1}, E: {2})|~Sentinel Dungeon|~3111|~6441",
                "iconName": "dungeon",
                "iconSize": [
                    35,
                    35
                ],
                "type": 208697589
            },
            "geometry": {
                "type": "Point",
                "coordinates": [
                    19323,
                    9332
                ]
            }
        },
        {
            "type": "Feature",
            "id": 576460752317278520,
            "properties": {
                "popupText": "{0} (N: {1}, E: {2})|~Sentinel Dungeon|~4580|~6005",
                "iconName": "dungeon",
                "iconSize": [
                    35,
                    35
                ],
                "type": 208697589
            },
            "geometry": {
                "type": "Point",
                "coordinates": [
                    18016,
                    13740
                ]
            }
        },
        {
            "type": "Feature",
            "id": 576460752317268312,
            "properties": {
                "popupText": "{0} (N: {1}, E: {2})|~Sentinel Dungeon|~4835|~6529",
                "iconName": "dungeon",
                "iconSize": [
                    35,
                    35
                ],
                "type": 208697589
            },
            "geometry": {
                "type": "Point",
                "coordinates": [
                    19588,
                    14504
                ]
            }
        },
        {
            "type": "Feature",
            "id": 648518346353972924,
            "properties": {
                "popupText": "{0} (N: {1}, E: {2})|~Araknir Dungeon|~4087|~9967",
                "iconName": "dungeon",
                "iconSize": [
                    35,
                    35
                ],
                "type": 1084069097
            },
            "geometry": {
                "type": "Point",
                "coordinates": [
                    29902,
                    12260
                ]
            }
        },
        {
            "type": "Feature",
            "id": 648518346353972741,
            "properties": {
                "popupText": "{0} (N: {1}, E: {2})|~Araknir Dungeon|~4779|~9824",
                "iconName": "dungeon",
                "iconSize": [
                    35,
                    35
                ],
                "type": 1084069097
            },
            "geometry": {
                "type": "Point",
                "coordinates": [
                    29475,
                    14338
                ]
            }
        },
        {
            "type": "Feature",
            "id": 648518346353899495,
            "properties": {
                "popupText": "{0} (N: {1}, E: {2})|~Giant Skitch Dungeon|~3651|~9264",
                "iconName": "dungeon",
                "iconSize": [
                    35,
                    35
                ],
                "type": 1785852446
            },
            "geometry": {
                "type": "Point",
                "coordinates": [
                    27793,
                    10954
                ]
            }
        },
        {
            "type": "Feature",
            "id": 648518346353899785,
            "properties": {
                "popupText": "{0} (N: {1}, E: {2})|~Giant Skitch Dungeon|~3847|~8910",
                "iconName": "dungeon",
                "iconSize": [
                    35,
                    35
                ],
                "type": 1785852446
            },
            "geometry": {
                "type": "Point",
                "coordinates": [
                    26731,
                    11541
                ]
            }
        },
        {
            "type": "Feature",
            "id": 648518346353899641,
            "properties": {
                "popupText": "{0} (N: {1}, E: {2})|~Giant Skitch Dungeon|~3879|~9232",
                "iconName": "dungeon",
                "iconSize": [
                    35,
                    35
                ],
                "type": 1785852446
            },
            "geometry": {
                "type": "Point",
                "coordinates": [
                    27696,
                    11636
                ]
            }
        },
        {
            "type": "Feature",
            "id": 648518346353899929,
            "properties": {
                "popupText": "{0} (N: {1}, E: {2})|~Giant Skitch Dungeon|~4172|~9010",
                "iconName": "dungeon",
                "iconSize": [
                    35,
                    35
                ],
                "type": 1785852446
            },
            "geometry": {
                "type": "Point",
                "coordinates": [
                    27028,
                    12515
                ]
            }
        },
        {
            "type": "Feature",
            "id": 648518346353975721,
            "properties": {
                "popupText": "{0} (N: {1}, E: {2})|~Sentinel Dungeon|~3158|~9060",
                "iconName": "dungeon",
                "iconSize": [
                    35,
                    35
                ],
                "type": 208697589
            },
            "geometry": {
                "type": "Point",
                "coordinates": [
                    27181,
                    9475
                ]
            }
        },
        {
            "type": "Feature",
            "id": 648518346353995545,
            "properties": {
                "popupText": "{0} (N: {1}, E: {2})|~Sentinel Dungeon|~3359|~8779",
                "iconName": "dungeon",
                "iconSize": [
                    35,
                    35
                ],
                "type": 208697589
            },
            "geometry": {
                "type": "Point",
                "coordinates": [
                    26337,
                    10077
                ]
            }
        },
        {
            "type": "Feature",
            "id": 648518346353985552,
            "properties": {
                "popupText": "{0} (N: {1}, E: {2})|~Sentinel Dungeon|~4684|~9086",
                "iconName": "dungeon",
                "iconSize": [
                    35,
                    35
                ],
                "type": 208697589
            },
            "geometry": {
                "type": "Point",
                "coordinates": [
                    27258,
                    14053
                ]
            }
        }
    ]
}