[{"type":"Feature","properties":{"name":"Hexite Deposit (N: 3972, E: 4774)","type":"hexite"},"geometry":{"type":"Point","coordinates":[14323,11917]}},{"type":"Feature","properties":{"name":"Hexite Deposit (N: 3014, E: 4142)","type":"hexite","timer":"2026-03-05T05:20:48.861Z"},"geometry":{"type":"Point","coordinates":[12426,9043]}},{"type":"Feature","properties":{"name":"Hexite Deposit (N: 3362, E: 3687)","type":"hexite","timer":"2026-03-12T04:57:31.445Z"},"geometry":{"type":"Point","coordinates":[11061,10087]}},{"type":"Feature","properties":{"name":"Hexite Deposit (N: 2794, E: 2882)","type":"hexite"},"geometry":{"type":"Point","coordinates":[8647,8382]}},{"type":"Feature","properties":{"name":"Hexite Deposit (N: 4555, E: 2820)","type":"hexite"},"geometry":{"type":"Point","coordinates":[8462,13666]}},{"type":"Feature","properties":{"name":"Hexite Deposit (N: 4902, E: 4657)","type":"hexite","timer":"2026-03-12T03:54:11.487Z"},"geometry":{"type":"Point","coordinates":[13970,14707]}},{"type":"Feature","properties":{"name":"Hexite Deposit (N: 3399, E: 4748)","type":"hexite"},"geometry":{"type":"Point","coordinates":[14247,10198]}},{"type":"Feature","properties":{"name":"Hexite Deposit (N: 3879, E: 2893)","type":"hexite","timer":"2026-03-05T10:16:19.419Z"},"geometry":{"type":"Point","coordinates":[8682,11638]}},{"type":"Feature","properties":{"name":"Hexite Deposit (N: 4181, E: 4279)","type":"hexite","timer":"2026-03-06T13:19:46.188Z"},"geometry":{"type":"Point","coordinates":[12838,12542]}},{"type":"Feature","properties":{"name":"Hexite Deposit (N: 4598, E: 3471)","type":"hexite","timer":"2026-03-06T13:20:58.497Z"},"geometry":{"type":"Point","coordinates":[10413,13795]}},{"type":"Feature","properties":{"name":"Hexite Deposit (N: 4361, E: 7208)","type":"hexite","timer":"2026-03-05T16:57:34.306Z"},"geometry":{"type":"Point","coordinates":[21626,13084]}},{"type":"Feature","properties":{"name":"Hexite Deposit (N: 3140, E: 6551)","type":"hexite","timer":"2026-03-11T18:01:46.915Z"},"geometry":{"type":"Point","coordinates":[19654,9421]}},{"type":"Feature","properties":{"name":"Hexite Deposit (N: 3548, E: 5289)","type":"hexite","timer":"2026-03-05T21:34:37.231Z"},"geometry":{"type":"Point","coordinates":[15866,10643]}},{"type":"Feature","properties":{"name":"Hexite Deposit (N: 4675, E: 6067)","type":"hexite","timer":"2026-03-06T08:06:07.151Z"},"geometry":{"type":"Point","coordinates":[18203,14026]}},{"type":"Feature","properties":{"name":"Hexite Deposit (N: 3205, E: 7340)","type":"hexite","timer":"2026-03-06T13:44:04.202Z"},"geometry":{"type":"Point","coordinates":[22022,9616]}},{"type":"Feature","properties":{"name":"Hexite Deposit (N: 3794, E: 7532)","type":"hexite","timer":"2026-03-06T12:33:36.714Z"},"geometry":{"type":"Point","coordinates":[22595,11383]}},{"type":"Feature","properties":{"name":"Hexite Deposit (N: 4926, E: 6725)","type":"hexite","timer":"2026-03-05T09:29:20.017Z"},"geometry":{"type":"Point","coordinates":[20175,14778]}},{"type":"Feature","properties":{"name":"Hexite Deposit (N: 4216, E: 5489)","type":"hexite","timer":"2026-03-06T12:20:17.933Z"},"geometry":{"type":"Point","coordinates":[16465,12647]}},{"type":"Feature","properties":{"name":"Hexite Deposit (N: 3176, E: 5747)","type":"hexite"},"geometry":{"type":"Point","coordinates":[17241,9529]}},{"type":"Feature","properties":{"name":"Hexite Deposit (N: 3885, E: 6409)","type":"hexite","timer":"2026-03-05T05:48:37.348Z"},"geometry":{"type":"Point","coordinates":[19228,11655]}},{"type":"Feature","properties":{"name":"Hexite Deposit (N: 3237, E: 8533)","type":"hexite","timer":"2026-03-06T11:00:57.677Z"},"geometry":{"type":"Point","coordinates":[25601,9710]}},{"type":"Feature","properties":{"name":"Hexite Deposit (N: 3956, E: 9090)","type":"hexite","timer":"2026-03-05T14:50:50.319Z"},"geometry":{"type":"Point","coordinates":[27270,11869]}},{"type":"Feature","properties":{"name":"Hexite Deposit (N: 3189, E: 9226)","type":"hexite","timer":"2026-03-12T06:39:37.773Z"},"geometry":{"type":"Point","coordinates":[27678,9567]}},{"type":"Feature","properties":{"name":"Hexite Deposit (N: 4910, E: 8115)","type":"hexite","timer":"2026-03-05T20:19:25.508Z"},"geometry":{"type":"Point","coordinates":[24344,14731]}},{"type":"Feature","properties":{"name":"Hexite Deposit (N: 3637, E: 7925)","type":"hexite","timer":"2026-03-12T12:54:06.669Z"},"geometry":{"type":"Point","coordinates":[23776,10912]}},{"type":"Feature","properties":{"name":"Hexite Deposit (N: 3224, E: 9950)","type":"hexite","timer":"2026-03-05T10:55:48.577Z"},"geometry":{"type":"Point","coordinates":[29850,9671]}},{"type":"Feature","properties":{"name":"Hexite Deposit (N: 4125, E: 9816)","type":"hexite","timer":"2026-03-05T14:28:23.734Z"},"geometry":{"type":"Point","coordinates":[29448,12374]}},{"type":"Feature","properties":{"name":"Hexite Deposit (N: 2701, E: 8112)","type":"hexite","timer":"2026-03-06T07:25:33.662Z"},"geometry":{"type":"Point","coordinates":[24338,8104]}},{"type":"Feature","properties":{"name":"Hexite Deposit (N: 4339, E: 8316)","type":"hexite","timer":"2026-03-05T20:10:16.284Z"},"geometry":{"type":"Point","coordinates":[24949,13016]}},{"type":"Feature","properties":{"name":"Hexite Deposit (N: 4592, E: 9483)","type":"hexite","timer":"2026-03-05T18:43:14.932Z"},"geometry":{"type":"Point","coordinates":[28448,13776]}},{"type":"Feature","properties":{"name":"Hexite Deposit (N: 5965, E: 2959)","type":"hexite","timer":"2026-03-06T13:27:53.291Z"},"geometry":{"type":"Point","coordinates":[8879,17896]}},{"type":"Feature","properties":{"name":"Hexite Deposit (N: 7220, E: 3090)","type":"hexite","timer":"2026-03-05T19:23:28.674Z"},"geometry":{"type":"Point","coordinates":[9270,21661]}},{"type":"Feature","properties":{"name":"Hexite Deposit (N: 6706, E: 2993)","type":"hexite","timer":"2026-03-05T13:22:58.971Z"},"geometry":{"type":"Point","coordinates":[8977,20117]}},{"type":"Feature","properties":{"name":"Hexite Deposit (N: 5622, E: 3856)","type":"hexite","timer":"2026-03-05T19:10:06.755Z"},"geometry":{"type":"Point","coordinates":[11567,16866]}},{"type":"Feature","properties":{"name":"Hexite Deposit (N: 6446, E: 3830)","type":"hexite","timer":"2026-03-05T22:54:32.610Z"},"geometry":{"type":"Point","coordinates":[11490,19339]}},{"type":"Feature","properties":{"name":"Hexite Deposit (N: 6146, E: 4640)","type":"hexite","timer":"2026-03-06T05:19:21.051Z"},"geometry":{"type":"Point","coordinates":[13920,18437]}},{"type":"Feature","properties":{"name":"Hexite Deposit (N: 5316, E: 4498)","type":"hexite","timer":"2026-03-05T17:50:37.759Z"},"geometry":{"type":"Point","coordinates":[13494,15948]}},{"type":"Feature","properties":{"name":"Hexite Deposit (N: 7050, E: 4609)","type":"hexite","timer":"2026-03-06T02:01:34.166Z"},"geometry":{"type":"Point","coordinates":[13825,21149]}},{"type":"Feature","properties":{"name":"Hexite Deposit (N: 7253, E: 4047)","type":"hexite","timer":"2026-03-06T03:02:30.618Z"},"geometry":{"type":"Point","coordinates":[12143,21758]}},{"type":"Feature","properties":{"name":"Hexite Deposit (N: 7071, E: 3525)","type":"hexite","timer":"2026-03-05T23:00:46.736Z"},"geometry":{"type":"Point","coordinates":[10575,21212]}},{"type":"Feature","properties":{"name":"Tree of Wisdom (N: 6370, E: 6350)","type":"tree"},"geometry":{"type":"Point","coordinates":[19048,19109]}},{"type":"Feature","properties":{"name":"Hexite Deposit (N: 6225, E: 6298)","type":"hexite","timer":"2026-03-06T06:29:27.626Z"},"geometry":{"type":"Point","coordinates":[18896,18674]}},{"type":"Feature","properties":{"name":"Hexite Deposit (N: 6222, E: 6504)","type":"hexite","timer":"2026-03-05T13:07:38.899Z"},"geometry":{"type":"Point","coordinates":[19510,18665]}},{"type":"Feature","properties":{"name":"Hexite Deposit (N: 6508, E: 6509)","type":"hexite","timer":"2026-03-11T02:21:00.880Z"},"geometry":{"type":"Point","coordinates":[19525,19523]}},{"type":"Feature","properties":{"name":"Hexite Deposit (N: 6547, E: 6367)","type":"hexite","timer":"2026-03-06T08:17:19.342Z"},"geometry":{"type":"Point","coordinates":[19103,19642]}},{"type":"Feature","properties":{"name":"Hexite Deposit (N: 6767, E: 6572)","type":"hexite","timer":"2026-03-05T19:49:47.914Z"},"geometry":{"type":"Point","coordinates":[19717,20302]}},{"type":"Feature","properties":{"name":"Hexite Deposit (N: 6548, E: 6679)","type":"hexite","timer":"2026-03-06T03:39:53.795Z"},"geometry":{"type":"Point","coordinates":[20037,19643]}},{"type":"Feature","properties":{"name":"Hexite Deposit (N: 6322, E: 6826)","type":"hexite","timer":"2026-03-05T13:21:04.301Z"},"geometry":{"type":"Point","coordinates":[20478,18966]}},{"type":"Feature","properties":{"name":"Hexite Deposit (N: 6144, E: 6708)","type":"hexite","timer":"2026-03-12T15:42:25.607Z"},"geometry":{"type":"Point","coordinates":[20124,18433]}},{"type":"Feature","properties":{"name":"Hexite Deposit (N: 5998, E: 6476)","type":"hexite","timer":"2026-03-12T19:23:17.224Z"},"geometry":{"type":"Point","coordinates":[19427,17994]}},{"type":"Feature","properties":{"name":"Hexite Deposit (N: 6071, E: 6257)","type":"hexite","timer":"2026-03-11T19:32:56.294Z"},"geometry":{"type":"Point","coordinates":[18772,18213]}},{"type":"Feature","properties":{"name":"Hexite Deposit (N: 6132, E: 6135)","type":"hexite","timer":"2026-03-05T07:27:00.647Z"},"geometry":{"type":"Point","coordinates":[18405,18395]}},{"type":"Feature","properties":{"name":"Hexite Deposit (N: 6412, E: 6025)","type":"hexite","timer":"2026-03-11T07:38:36.585Z"},"geometry":{"type":"Point","coordinates":[18075,19236]}},{"type":"Feature","properties":{"name":"Hexite Deposit (N: 6572, E: 6065)","type":"hexite","timer":"2026-03-11T10:28:32.414Z"},"geometry":{"type":"Point","coordinates":[18195,19715]}},{"type":"Feature","properties":{"name":"Hexite Deposit (N: 6751, E: 6309)","type":"hexite","timer":"2026-03-05T14:59:18.358Z"},"geometry":{"type":"Point","coordinates":[18928,20254]}},{"type":"Feature","properties":{"name":"Hexite Deposit (N: 5616, E: 9119)","type":"hexite","timer":"2026-03-12T02:52:36.491Z"},"geometry":{"type":"Point","coordinates":[27356,16849]}},{"type":"Feature","properties":{"name":"Hexite Deposit (N: 6060, E: 8598)","type":"hexite","timer":"2026-03-12T20:53:46.197Z"},"geometry":{"type":"Point","coordinates":[25793,18180]}},{"type":"Feature","properties":{"name":"Hexite Deposit (N: 7094, E: 9781)","type":"hexite","timer":"2026-03-05T05:37:56.446Z"},"geometry":{"type":"Point","coordinates":[29343,21283]}},{"type":"Feature","properties":{"name":"Hexite Deposit (N: 6158, E: 8174)","type":"hexite","timer":"2026-03-06T10:44:57.562Z"},"geometry":{"type":"Point","coordinates":[24521,18473]}},{"type":"Feature","properties":{"name":"Hexite Deposit (N: 5593, E: 9647)","type":"hexite","timer":"2026-03-05T17:01:39.667Z"},"geometry":{"type":"Point","coordinates":[28942,16780]}},{"type":"Feature","properties":{"name":"Hexite Deposit (N: 5627, E: 8268)","type":"hexite"},"geometry":{"type":"Point","coordinates":[24806,16881]}},{"type":"Feature","properties":{"name":"Hexite Deposit (N: 6387, E: 9871)","type":"hexite","timer":"2026-03-05T17:58:27.574Z"},"geometry":{"type":"Point","coordinates":[29614,19162]}},{"type":"Feature","properties":{"name":"Hexite Deposit (N: 6746, E: 9150)","type":"hexite","timer":"2026-03-06T01:03:17.204Z"},"geometry":{"type":"Point","coordinates":[27448,20237]}},{"type":"Feature","properties":{"name":"Hexite Deposit (N: 6997, E: 8435)","type":"hexite","timer":"2026-03-05T23:03:00.939Z"},"geometry":{"type":"Point","coordinates":[25307,20992]}},{"type":"Feature","properties":{"name":"Hexite Deposit (N: 7407, E: 8954)","type":"hexite","timer":"2026-03-05T19:52:25.650Z"},"geometry":{"type":"Point","coordinates":[26864,22220]}},{"type":"Feature","properties":{"name":"Hexite Deposit (N: 9174, E: 4801)","type":"hexite","timer":"2026-03-05T23:39:20.349Z"},"geometry":{"type":"Point","coordinates":[14403,27521]}},{"type":"Feature","properties":{"name":"Hexite Deposit (N: 8551, E: 3481)","type":"hexite","timer":"2026-03-06T07:13:14.710Z"},"geometry":{"type":"Point","coordinates":[10446,25654]}},{"type":"Feature","properties":{"name":"Hexite Deposit (N: 9785, E: 4082)","type":"hexite"},"geometry":{"type":"Point","coordinates":[12249,29356]}},{"type":"Feature","properties":{"name":"Hexite Deposit (N: 9600, E: 3605)","type":"hexite"},"geometry":{"type":"Point","coordinates":[10814,28799]}},{"type":"Feature","properties":{"name":"Hexite Deposit (N: 9336, E: 3213)","type":"hexite","timer":"2026-03-05T13:44:59.841Z"},"geometry":{"type":"Point","coordinates":[9640,28009]}},{"type":"Feature","properties":{"name":"Hexite Deposit (N: 10028, E: 4707)","type":"hexite","timer":"2026-03-06T03:34:10.606Z"},"geometry":{"type":"Point","coordinates":[14120,30084]}},{"type":"Feature","properties":{"name":"Hexite Deposit (N: 8065, E: 2971)","type":"hexite","timer":"2026-03-06T03:06:40.963Z"},"geometry":{"type":"Point","coordinates":[8916,24196]}},{"type":"Feature","properties":{"name":"Hexite Deposit (N: 8108, E: 4017)","type":"hexite","timer":"2026-03-05T09:22:32.367Z"},"geometry":{"type":"Point","coordinates":[12051,24324]}},{"type":"Feature","properties":{"name":"Hexite Deposit (N: 8599, E: 4437)","type":"hexite","timer":"2026-03-06T01:48:55.085Z"},"geometry":{"type":"Point","coordinates":[13312,25796]}},{"type":"Feature","properties":{"name":"Hexite Deposit (N: 8437, E: 5020)","type":"hexite","timer":"2026-03-05T08:24:24.958Z"},"geometry":{"type":"Point","coordinates":[15062,25310]}},{"type":"Feature","properties":{"name":"Hexite Deposit (N: 8084, E: 5391)","type":"hexite","timer":"2026-03-05T18:33:37.321Z"},"geometry":{"type":"Point","coordinates":[16172,24253]}},{"type":"Feature","properties":{"name":"Hexite Deposit (N: 9731, E: 6719)","type":"hexite","timer":"2026-03-05T20:32:53.905Z"},"geometry":{"type":"Point","coordinates":[20157,29193]}},{"type":"Feature","properties":{"name":"Hexite Deposit (N: 9607, E: 6203)","type":"hexite","timer":"2026-03-05T21:38:48.599Z"},"geometry":{"type":"Point","coordinates":[18610,28821]}},{"type":"Feature","properties":{"name":"Hexite Deposit (N: 9223, E: 5418)","type":"hexite","timer":"2026-03-12T11:04:10.328Z"},"geometry":{"type":"Point","coordinates":[16256,27670]}},{"type":"Feature","properties":{"name":"Hexite Deposit (N: 9923, E: 5491)","type":"hexite"},"geometry":{"type":"Point","coordinates":[16475,29769]}},{"type":"Feature","properties":{"name":"Hexite Deposit (N: 8397, E: 5606)","type":"hexite","timer":"2026-03-06T05:50:43.693Z"},"geometry":{"type":"Point","coordinates":[16818,25191]}},{"type":"Feature","properties":{"name":"Hexite Deposit (N: 8813, E: 6038)","type":"hexite","timer":"2026-03-05T18:22:40.629Z"},"geometry":{"type":"Point","coordinates":[18115,26440]}},{"type":"Feature","properties":{"name":"Hexite Deposit (N: 9393, E: 7468)","type":"hexite","timer":"2026-03-05T17:55:06.403Z"},"geometry":{"type":"Point","coordinates":[22405,28178]}},{"type":"Feature","properties":{"name":"Hexite Deposit (N: 7913, E: 6801)","type":"hexite","timer":"2026-03-06T03:12:28.485Z"},"geometry":{"type":"Point","coordinates":[20404,23739]}},{"type":"Feature","properties":{"name":"Hexite Deposit (N: 8434, E: 7390)","type":"hexite","timer":"2026-03-12T12:16:37.181Z"},"geometry":{"type":"Point","coordinates":[22170,25303]}},{"type":"Feature","properties":{"name":"Hexite Deposit (N: 8647, E: 10025)","type":"hexite","timer":"2026-03-12T21:57:40.241Z"},"geometry":{"type":"Point","coordinates":[30076,25940]}},{"type":"Feature","properties":{"name":"Hexite Deposit (N: 9286, E: 8082)","type":"hexite","timer":"2026-03-05T22:43:21.793Z"},"geometry":{"type":"Point","coordinates":[24245,27859]}},{"type":"Feature","properties":{"name":"Hexite Deposit (N: 8465, E: 9176)","type":"hexite","timer":"2026-03-05T17:43:05.227Z"},"geometry":{"type":"Point","coordinates":[27528,25394]}},{"type":"Feature","properties":{"name":"Hexite Deposit (N: 7893, E: 9188)","type":"hexite","timer":"2026-03-11T17:03:40.634Z"},"geometry":{"type":"Point","coordinates":[27564,23679]}},{"type":"Feature","properties":{"name":"Hexite Deposit (N: 9653, E: 9840)","type":"hexite","timer":"2026-03-06T09:33:57.823Z"},"geometry":{"type":"Point","coordinates":[29522,28958]}},{"type":"Feature","properties":{"name":"Hexite Deposit (N: 8205, E: 9649)","type":"hexite","timer":"2026-03-06T07:18:52.733Z"},"geometry":{"type":"Point","coordinates":[28948,24615]}},{"type":"Feature","properties":{"name":"Hexite Deposit (N: 8544, E: 8170)","type":"hexite"},"geometry":{"type":"Point","coordinates":[24509,25633]}},{"type":"Feature","properties":{"name":"Hexite Deposit (N: 9546, E: 9252)","type":"hexite","timer":"2026-03-05T18:24:12.686Z"},"geometry":{"type":"Point","coordinates":[27755,28639]}},{"type":"Feature","properties":{"name":"Hexite Deposit (N: 9900, E: 8529)","type":"hexite","timer":"2026-03-05T17:17:08.848Z"},"geometry":{"type":"Point","coordinates":[25586,29700]}},{"type":"Feature","properties":{"name":"Hexite Deposit (N: 9058, E: 8676)","type":"hexite","timer":"2026-03-06T09:30:40.874Z"},"geometry":{"type":"Point","coordinates":[26027,27175]}}]